STARLINK-5768           
1 57145U 23090AW  25106.68112786  .00000584  00000+0  58290-4 0  9993
2 57145  43.0037 238.4251 0001501 270.6526  89.4144 15.02537283101188
STARLINK-5791           
1 57146U 23090AX  25106.82074568  .00000689  00000+0  66070-4 0  9996
2 57146  43.0029 237.7513 0001313 264.9453  95.1240 15.02538073101201
STARLINK-5765           
1 57147U 23090AY  25106.80963659 -.00000600  00000+0 -29317-4 0  9991
2 57147  43.0044 237.6656 0001571 274.8827  85.1836 15.02539881101395
STARLINK-5788           
1 57148U 23090AZ  25106.73650860  .00001973  00000+0  16102-3 0  9990
2 57148  43.0031 237.9800 0001699 288.1135  71.9522 15.02550210101199
STARLINK-5778           
1 57149U 23090BA  25106.75701848 -.00000893  00000+0 -51064-4 0  9995
2 57149  43.0033 212.0875 0001199 269.0546  91.0159 15.02520384101689
STARLINK-5780           
1 57150U 23090BB  25106.68446708 -.00000049  00000+0  11470-4 0  9999
2 57150  43.0084 238.4436 0001957   4.3911 355.6948 15.02551673101376
STARLINK-5776           
1 57151U 23090BC  25106.81629541  .00002343  00000+0  18847-3 0  9995
2 57151  43.0038 237.7213 0001671 286.7935  73.2724 15.02539186101398
STARLINK-6164           
1 57152U 23090BD  25106.81963116  .00001170  00000+0  10169-3 0  9991
2 57152  43.0033 237.7465 0001143 268.6304  91.4407 15.02540908101390
STARLINK-5879           
1 57153U 23090BE  25106.71024348  .00000177  00000+0  28183-4 0  9998
2 57153  43.0026 225.6221 0001005 281.0705  79.0024 15.02533972101020
STARLINK-6106           
1 57154U 23090BF  25106.81075372 -.00000116  00000+0  64801-5 0  9995
2 57154  43.0028 237.6774 0000993 252.7552 107.3182 15.02536826101390
STARLINK-6108           
1 57155U 23090BG  25106.72984826  .00001151  00000+0  10027-3 0  9997
2 57155  43.0018 237.9305 0001749 274.5791  85.4852 15.02537575101381
STARLINK-6137           
1 57156U 23090BH  25106.73317555  .00000817  00000+0  75565-4 0  9995
2 57156  43.0025 237.9546 0001451 270.4248  89.6428 15.02541508101385
STARLINK-5525           
1 57218U 23094A   25106.74049241  .00002116  00000+0  17169-3 0  9992
2 57218  42.9989   7.2797 0001059 281.8927  78.1797 15.02531002 97936
STARLINK-5520           
1 57219U 23094B   25106.73715886  .00000545  00000+0  55415-4 0  9998
2 57219  43.0038   7.2558 0001165 245.9536 114.1184 15.02544746 97934
