[
  {
    "OBJECT_NAME": "STARLINK-5768",
    "OBJECT_ID": "2023-090AW",
    "EPOCH": "2025-04-16T16:20:49.447104",
    "MEAN_MOTION": 15.02537283,
    "ECCENTRICITY": 0.0001501,
    "INCLINATION": 43.0037,
    "RA_OF_ASC_NODE": 238.4251,
    "ARG_OF_PERICENTER": 270.6526,
    "MEAN_ANOMALY": 89.4144,
    "EPHEMERIS_TYPE": 0,
    "CLASSIFICATION_TYPE": "U",
    "NORAD_CAT_ID": 57145,
    "ELEMENT_SET_NO": 999,
    "REV_AT_EPOCH": 10118,
    "BSTAR": 5.829e-5,
    "MEAN_MOTION_DOT": 5.84e-6,
    "MEAN_MOTION_DDOT": 0
  },
  {
    "OBJECT_NAME": "STARLINK-5791",
    "OBJECT_ID": "2023-090AX",
    "EPOCH": "2025-04-16T19:41:52.426752",
    "MEAN_MOTION": 15.02538073,
    "ECCENTRICITY": 0.0001313,
    "INCLINATION": 43.0029,
    "RA_OF_ASC_NODE": 237.7513,
    "ARG_OF_PERICENTER": 264.9453,
    "MEAN_ANOMALY": 95.124,
    "EPHEMERIS_TYPE": 0,
    "CLASSIFICATION_TYPE": "U",
    "NORAD_CAT_ID": 57146,
    "ELEMENT_SET_NO": 999,
    "REV_AT_EPOCH": 10120,
    "BSTAR": 6.607e-5,
    "MEAN_MOTION_DOT": 6.89e-6,
    "MEAN_MOTION_DDOT": 0
  },
  {
    "OBJECT_NAME": "STARLINK-5765",
    "OBJECT_ID": "2023-090AY",
    "EPOCH": "2025-04-16T19:25:52.601376",
    "MEAN_MOTION": 15.02539881,
    "ECCENTRICITY": 0.0001571,
    "INCLINATION": 43.0044,
    "RA_OF_ASC_NODE": 237.6656,
    "ARG_OF_PERICENTER": 274.8827,
    "MEAN_ANOMALY": 85.1836,
    "EPHEMERIS_TYPE": 0,
    "CLASSIFICATION_TYPE": "U",
    "NORAD_CAT_ID": 57147,
    "ELEMENT_SET_NO": 999,
    "REV_AT_EPOCH": 10139,
    "BSTAR": -2.9317e-5,
    "MEAN_MOTION_DOT": -6.0e-6,
    "MEAN_MOTION_DDOT": 0
  },
  {
    "OBJECT_NAME": "STARLINK-5788",
    "OBJECT_ID": "2023-090AZ",
    "EPOCH": "2025-04-16T17:40:34.343040",
    "MEAN_MOTION": 15.0255021,
    "ECCENTRICITY": 0.0001699,
    "INCLINATION": 43.0031,
    "RA_OF_ASC_NODE": 237.98,
    "ARG_OF_PERICENTER": 288.1135,
    "MEAN_ANOMALY": 71.9522,
    "EPHEMERIS_TYPE": 0,
    "CLASSIFICATION_TYPE": "U",
    "NORAD_CAT_ID": 57148,
    "ELEMENT_SET_NO": 999,
    "REV_AT_EPOCH": 10119,
    "BSTAR": 0.00016102,
    "MEAN_MOTION_DOT": 1.973e-5,
    "MEAN_MOTION_DDOT": 0
  },
  {
    "OBJECT_NAME": "STARLINK-5778",
    "OBJECT_ID": "2023-090BA",
    "EPOCH": "2025-04-16T18:10:06.396672",
    "MEAN_MOTION": 15.02520384,
    "ECCENTRICITY": 0.0001199,
    "INCLINATION": 43.0033,
    "RA_OF_ASC_NODE": 212.0875,
    "ARG_OF_PERICENTER": 269.0546,
    "MEAN_ANOMALY": 91.0159,
    "EPHEMERIS_TYPE": 0,
    "CLASSIFICATION_TYPE": "U",
    "NORAD_CAT_ID": 57149,
    "ELEMENT_SET_NO": 999,
    "REV_AT_EPOCH": 10168,
    "BSTAR": -5.1064e-5,
    "MEAN_MOTION_DOT": -8.93e-6,
    "MEAN_MOTION_DDOT": 0
  },
  {
    "OBJECT_NAME": "STARLINK-5780",
    "OBJECT_ID": "2023-090BB",
    "EPOCH": "2025-04-16T16:25:37.955712",
    "MEAN_MOTION": 15.02551673,
    "ECCENTRICITY": 0.0001957,
    "INCLINATION": 43.0084,
    "RA_OF_ASC_NODE": 238.4436,
    "ARG_OF_PERICENTER": 4.3911,
    "MEAN_ANOMALY": 355.6948,
    "EPHEMERIS_TYPE": 0,
    "CLASSIFICATION_TYPE": "U",
    "NORAD_CAT_ID": 57150,
    "ELEMENT_SET_NO": 999,
    "REV_AT_EPOCH": 10137,
    "BSTAR": 1.147e-5,
    "MEAN_MOTION_DOT": -4.9e-7,
    "MEAN_MOTION_DDOT": 0
  },
  {
    "OBJECT_NAME": "STARLINK-5776",
    "OBJECT_ID": "2023-090BC",
    "EPOCH": "2025-04-16T19:35:27.923424",
    "MEAN_MOTION": 15.02539186,
    "ECCENTRICITY": 0.0001671,
    "INCLINATION": 43.0038,
    "RA_OF_ASC_NODE": 237.7213,
    "ARG_OF_PERICENTER": 286.7935,
    "MEAN_ANOMALY": 73.2724,
    "EPHEMERIS_TYPE": 0,
    "CLASSIFICATION_TYPE": "U",
    "NORAD_CAT_ID": 57151,
    "ELEMENT_SET_NO": 999,
    "REV_AT_EPOCH": 10139,
    "BSTAR": 0.00018847,
    "MEAN_MOTION_DOT": 2.343e-5,
    "MEAN_MOTION_DDOT": 0
  },
  {
    "OBJECT_NAME": "STARLINK-6164",
    "OBJECT_ID": "2023-090BD",
    "EPOCH": "2025-04-16T19:40:16.132224",
    "MEAN_MOTION": 15.02540908,
    "ECCENTRICITY": 0.0001143,
    "INCLINATION": 43.0033,
    "RA_OF_ASC_NODE": 237.7465,
    "ARG_OF_PERICENTER": 268.6304,
    "MEAN_ANOMALY": 91.4407,
    "EPHEMERIS_TYPE": 0,
    "CLASSIFICATION_TYPE": "U",
    "NORAD_CAT_ID": 57152,
    "ELEMENT_SET_NO": 999,
    "REV_AT_EPOCH": 10139,
    "BSTAR": 0.00010169,
    "MEAN_MOTION_DOT": 1.17e-5,
    "MEAN_MOTION_DDOT": 0
  },
  {
    "OBJECT_NAME": "STARLINK-5879",
    "OBJECT_ID": "2023-090BE",
    "EPOCH": "2025-04-16T17:02:45.036672",
    "MEAN_MOTION": 15.02533972,
    "ECCENTRICITY": 0.0001005,
    "INCLINATION": 43.0026,
    "RA_OF_ASC_NODE": 225.6221,
    "ARG_OF_PERICENTER": 281.0705,
    "MEAN_ANOMALY": 79.0024,
    "EPHEMERIS_TYPE": 0,
    "CLASSIFICATION_TYPE": "U",
    "NORAD_CAT_ID": 57153,
    "ELEMENT_SET_NO": 999,
    "REV_AT_EPOCH": 10102,
    "BSTAR": 2.8183e-5,
    "MEAN_MOTION_DOT": 1.77e-6,
    "MEAN_MOTION_DDOT": 0
  },
  {
    "OBJECT_NAME": "STARLINK-6106",
    "OBJECT_ID": "2023-090BF",
    "EPOCH": "2025-04-16T19:27:29.121408",
    "MEAN_MOTION": 15.02536826,
    "ECCENTRICITY": 9.93e-5,
    "INCLINATION": 43.0028,
    "RA_OF_ASC_NODE": 237.6774,
    "ARG_OF_PERICENTER": 252.7552,
    "MEAN_ANOMALY": 107.3182,
    "EPHEMERIS_TYPE": 0,
    "CLASSIFICATION_TYPE": "U",
    "NORAD_CAT_ID": 57154,
    "ELEMENT_SET_NO": 999,
    "REV_AT_EPOCH": 10139,
    "BSTAR": 6.4801e-6,
    "MEAN_MOTION_DOT": -1.16e-6,
    "MEAN_MOTION_DDOT": 0
  },
  {
    "OBJECT_NAME": "STARLINK-6108",
    "OBJECT_ID": "2023-090BG",
    "EPOCH": "2025-04-16T17:30:58.889664",
    "MEAN_MOTION": 15.02537575,
    "ECCENTRICITY": 0.0001749,
    "INCLINATION": 43.0018,
    "RA_OF_ASC_NODE": 237.9305,
    "ARG_OF_PERICENTER": 274.5791,
    "MEAN_ANOMALY": 85.4852,
    "EPHEMERIS_TYPE": 0,
    "CLASSIFICATION_TYPE": "U",
    "NORAD_CAT_ID": 57155,
    "ELEMENT_SET_NO": 999,
    "REV_AT_EPOCH": 10138,
    "BSTAR": 0.00010027,
    "MEAN_MOTION_DOT": 1.151e-5,
    "MEAN_MOTION_DDOT": 0
  },
  {
    "OBJECT_NAME": "STARLINK-6137",
    "OBJECT_ID": "2023-090BH",
    "EPOCH": "2025-04-16T17:35:46.367520",
    "MEAN_MOTION": 15.02541508,
    "ECCENTRICITY": 0.0001451,
    "INCLINATION": 43.0025,
    "RA_OF_ASC_NODE": 237.9546,
    "ARG_OF_PERICENTER": 270.4248,
    "MEAN_ANOMALY": 89.6428,
    "EPHEMERIS_TYPE": 0,
    "CLASSIFICATION_TYPE": "U",
    "NORAD_CAT_ID": 57156,
    "ELEMENT_SET_NO": 999,
    "REV_AT_EPOCH": 10138,
    "BSTAR": 7.5565e-5,
    "MEAN_MOTION_DOT": 8.17e-6,
    "MEAN_MOTION_DDOT": 0
  },
  {
    "OBJECT_NAME": "STARLINK-5525",
    "OBJECT_ID": "2023-094A",
    "EPOCH": "2025-04-16T17:46:18.544224",
    "MEAN_MOTION": 15.02531002,
    "ECCENTRICITY": 0.0001059,
    "INCLINATION": 42.9989,
    "RA_OF_ASC_NODE": 7.2797,
    "ARG_OF_PERICENTER": 281.8927,
    "MEAN_ANOMALY": 78.1797,
    "EPHEMERIS_TYPE": 0,
    "CLASSIFICATION_TYPE": "U",
    "NORAD_CAT_ID": 57218,
    "ELEMENT_SET_NO": 999,
    "REV_AT_EPOCH": 9793,
    "BSTAR": 0.00017169,
    "MEAN_MOTION_DOT": 2.116e-5,
    "MEAN_MOTION_DDOT": 0
  },
  {
    "OBJECT_NAME": "STARLINK-5520",
    "OBJECT_ID": "2023-094B",
    "EPOCH": "2025-04-16T17:41:30.525504",
    "MEAN_MOTION": 15.02544746,
    "ECCENTRICITY": 0.0001165,
    "INCLINATION": 43.0038,
    "RA_OF_ASC_NODE": 7.2558,
    "ARG_OF_PERICENTER": 245.9536,
    "MEAN_ANOMALY": 114.1184,
    "EPHEMERIS_TYPE": 0,
    "CLASSIFICATION_TYPE": "U",
    "NORAD_CAT_ID": 57219,
    "ELEMENT_SET_NO": 999,
    "REV_AT_EPOCH": 9793,
    "BSTAR": 5.5415e-5,
    "MEAN_MOTION_DOT": 5.45e-6,
    "MEAN_MOTION_DDOT": 0
  }
]
